1 27424U 02022A   12275.25831693  .00001256  00000-0  28898-3 0  4457
2 27424 098.2053 214.1849 0001476 090.4744 269.6600 14.57086689553818